CYGFM03                 
1 41891U 16078H   26110.79561405  .00024289  00000+0  32303-3 0  9990
2 41891  34.9407 252.7209 0006412 356.9631   3.1054 15.57157816520012
FENGYUN 3D              
1 43010U 17072A   26111.48537208  .00000184  00000+0  10888-3 0  9993
2 43010  99.0097  84.8967 0001145 164.4313 195.6898 14.19727034436949
NOAA 20 (JPSS-1)        
1 43013U 17073A   26111.47176120  .00000042  00000+0  40927-4 0  9999
2 43013  98.7741  51.4472 0002148  79.4576 280.6842 14.19546462436426
GOES 17                 
1 43226U 18022A   26111.49237740 -.00000188  00000+0  00000+0 0  9993
2 43226   0.7929  86.4710 0000727 254.8181 316.0407  1.00271738 29851
FENGYUN 2H              
1 43491U 18050A   26111.51861811 -.00000134  00000+0  00000+0 0  9994
2 43491   2.8853  79.7033 0001856 159.6462 236.1497  1.00274535 28875
METOP-C                 
1 43689U 18087A   26111.47634065  .00000073  00000+0  53369-4 0  9999
2 43689  98.6687 172.1050 0001089  44.5377 315.5888 14.21510392386777
GEO-KOMPSAT-2A          
1 43823U 18100A   26111.51766082 -.00000349  00000+0  00000+0 0  9991
2 43823   0.0591  64.2777 0001773 359.4739 100.4641  1.00271517 27063
METEOR-M2 2             
1 44387U 19038A   26111.48544318  .00000081  00000+0  54792-4 0  9994
2 44387  98.9133  97.9426 0001529 135.0832 225.0470 14.24349695353229
ARKTIKA-M 1             
1 47719U 21016A   26111.17020280 -.00000118  00000+0  00000+0 0  9998
2 47719  63.2233  65.8434 7265535 269.6711  14.9698  2.00610237 37642
FENGYUN 3E              
1 49008U 21062A   26111.54617108  .00000209  00000+0  11898-3 0  9995
2 49008  98.7509 115.5846 0000527 223.0496 137.0639 14.19900107248545
GOES 18                 
1 51850U 22021A   26111.47580458  .00000091  00000+0  00000+0 0  9996
2 51850   0.0108  85.4000 0000208   7.4163 151.0203  1.00269918  6024
NOAA 21 (JPSS-2)        
1 54234U 22150A   26111.50602366  .00000047  00000+0  42825-4 0  9992
2 54234  98.7029  51.2568 0002068  32.3024 327.8278 14.19554604178509
METEOSAT-12 (MTG-I1)    
1 54743U 22170C   26111.28890139 -.00000012  00000+0  00000+0 0  9998
2 54743   0.7177  21.3741 0001147 320.4074 331.3131  1.00268033 12403
TIANMU-1 03             
1 55973U 23039A   26111.49675895  .00015005  00000+0  31310-3 0  9991
2 55973  97.5222 283.3240 0001783 313.6938  46.4163 15.45644183172074
TIANMU-1 04             
1 55974U 23039B   26111.50704639  .00015328  00000+0  31391-3 0  9990
2 55974  97.5158 282.4876 0002367 302.3559  57.7460 15.46185736172082
TIANMU-1 05             
1 55975U 23039C   26111.53976804  .00014492  00000+0  30308-3 0  9997
2 55975  97.5202 283.0041 0001915 349.3380  10.7828 15.45584305172064
TIANMU-1 06             
1 55976U 23039D   26111.50737582  .00015176  00000+0  31158-3 0  9997
2 55976  97.5212 283.5509 0002112 336.9566  23.1588 15.46115058172087
FENGYUN 3G              
1 56232U 23055A   26111.49046128  .00024861  00000+0  40910-3 0  9995
2 56232  49.9931 278.3848 0005758 301.0616  58.9786 15.52137431171191
METEOR-M2 3             
1 57166U 23091A   26111.53724043 -.00000007  00000+0  15789-4 0  9990
2 57166  98.6130 167.6611 0003535 352.8802   7.2326 14.24041855146450
TIANMU-1 07             
1 57399U 23101A   26111.50874801  .00005721  00000+0  20384-3 0  9998
2 57399  97.2639 163.4901 0002299  37.1036 323.0363 15.29305091152987
TIANMU-1 08             
1 57400U 23101B   26111.67261234  .00000147  00000+0  77115-5 0  9992
2 57400  97.2638 163.4267 0002637 343.4721  16.6433 15.29223143153008
TIANMU-1 09             
1 57401U 23101C   26110.80570068  .00005197  00000+0  18530-3 0  9999
2 57401  97.2587 162.0276 0002817  31.0958 329.0448 15.29323758152873
TIANMU-1 10             
1 57402U 23101D   26111.49285998  .00006112  00000+0  21783-3 0  9993
2 57402  97.2665 163.6894 0003404   0.3679 359.7563 15.29268830152974
FENGYUN 3F              
1 57490U 23111A   26111.46084913  .00000039  00000+0  38724-4 0  9998
2 57490  98.6858 182.5194 0000836 108.2568 251.8699 14.19928774140814
ARKTIKA-M 2             
1 58584U 23198A   26105.45009400  .00000213  00000+0  00000+0 0  9993
2 58584  63.2109 161.3400 6886040 267.6312  18.8487  2.00607933 17067
TIANMU-1 11             
1 58645U 23205A   26111.48949940  .00004757  00000+0  18543-3 0  9994
2 58645  97.3491 133.9513 0008525 192.4897 167.6131 15.26399677128874
TIANMU-1 12             
1 58646U 23205B   26111.52373760  .00004457  00000+0  17424-3 0  9995
2 58646  97.3479 133.7533 0007447 172.7587 187.3760 15.26342235128864
TIANMU-1 13             
1 58647U 23205C   26111.55319703  .00004993  00000+0  19450-3 0  9992
2 58647  97.3508 134.0400 0008335 156.1964 203.9661 15.26396415128861
TIANMU-1 14             
1 58648U 23205D   26111.47294138  .00004997  00000+0  19479-3 0  9993
2 58648  97.3443 133.1913 0008893 161.3140 198.8427 15.26367895128853
TIANMU-1 19             
1 58660U 23208A   26111.55995189  .00007908  00000+0  26920-3 0  9997
2 58660  97.4437 227.6318 0006044 145.9518 214.2112 15.30670734128669
TIANMU-1 20             
1 58661U 23208B   26111.51109767  .00008099  00000+0  26559-3 0  9993
2 58661  97.4378 228.1597 0007968 156.6833 203.4771 15.31857692128745
TIANMU-1 21             
1 58662U 23208C   26111.58186275  .00009486  00000+0  29037-3 0  9995
2 58662  97.4436 230.6743 0008008 151.3730 208.7954 15.34012958128883
TIANMU-1 22             
1 58663U 23208D   26111.52387247  .00007712  00000+0  26633-3 0  9991
2 58663  97.4432 227.5766 0004313 162.1511 197.9882 15.30221781128669
TIANMU-1 15             
1 58700U 24004A   26111.53563764  .00005608  00000+0  21819-3 0  9992
2 58700  97.4680 297.7370 0007134 176.2724 183.8569 15.26404897127135
TIANMU-1 16             
1 58701U 24004B   26111.51809829  .00005503  00000+0  21395-3 0  9999
2 58701  97.4624 297.0128 0005539 175.8032 184.3253 15.26442544127139
TIANMU-1 17             
1 58702U 24004C   26111.50165451  .00004952  00000+0  19373-3 0  9995
2 58702  97.4654 297.4643 0005289 181.1557 178.9670 15.26290888127126
TIANMU-1 18             
1 58703U 24004D   26111.55191580  .00005009  00000+0  19527-3 0  9998
2 58703  97.4672 297.7373 0004218 170.6664 189.4654 15.26406617127132
INSAT-3DS               
1 58990U 24033A   26111.51913810 -.00000161  00000+0  00000+0 0  9999
2 58990   0.0786  85.4992 0001810 293.2754  99.7917  1.00270897 46504
METEOR-M2 4             
1 59051U 24039A   26111.48765843  .00000012  00000+0  25273-4 0  9999
2 59051  98.6970  71.5127 0006726 343.4590  16.6367 14.22423314111203
GOES 19                 
1 60133U 24119A   26111.48802464 -.00000254  00000+0  00000+0 0  9997
2 60133   0.0057 252.5771 0000348 188.6708 228.8127  1.00271239  6392
FENGYUN 3H              
1 65815U 25219A   26111.38622935  .00000044  00000+0  41042-4 0  9995
2 65815  98.6736  53.2706 0000763 100.9512 259.1750 14.19942888 29322
OSCAR 7 (AO-7)          
1 07530U 74089B   26110.62061352 -.00000056  00000+0 -57306-4 0  9995
2 07530 101.9938 123.2614 0011916 240.0759 234.7890 12.53697151353309
PHASE 3B (AO-10)        
1 14129U 83058B   26107.66943027 -.00000005  00000+0  00000+0 0  9998
2 14129  25.8982 229.6657 6032508  98.9624 329.6785  2.05870713294246
UOSAT 2 (UO-11)         
1 14781U 84021B   26111.36787178  .00000987  00000+0  10642-3 0  9993
2 14781  97.8015  77.5992 0008170  23.4793 336.6796 14.90642743248662
LUSAT (LO-19)           
1 20442U 90005G   26111.32017139  .00000080  00000+0  45198-4 0  9991
2 20442  98.8894 131.5485 0011866  18.5326 341.6288 14.34104667894249
EYESAT A (AO-27)        
1 22825U 93061C   26111.43112475  .00000072  00000+0  44405-4 0  9995
2 22825  98.6911 178.8564 0007229 266.1142  93.9214 14.30926414698887
ITAMSAT (IO-26)         
1 22826U 93061D   26111.42741782  .00000081  00000+0  47346-4 0  9991
2 22826  98.6858 178.7645 0007827 247.1786 112.8570 14.31351766699198
RADIO ROSTO (RS15)      
1 23439U 94085A   26111.44365885 -.00000038  00000+0  13263-3 0  9990
2 23439  64.8203  34.9845 0154302  14.1883 346.3304 11.27583759289504
JAS-2 (FO-29)           
1 24278U 96046B   26110.86258845 -.00000031  00000+0  64579-5 0  9994
2 24278  98.5309 327.5635 0348889 245.1317 111.3177 13.53271340465413
TECHSAT 1B (GO-32)      
1 25397U 98043D   26111.23758066  .00000029  00000+0  32707-4 0  9991
2 25397  99.0062 102.5652 0001953  51.7429 308.3925 14.24416696443229
ISS (ZARYA)             
1 25544U 98067A   26111.49012659  .00009217  00000+0  17597-3 0  9997
2 25544  51.6324 220.7136 0006728 333.7588  26.3059 15.48871311562966
PCSAT (NO-44)           
1 26931U 01043C   26111.51425483  .00000080  00000+0  60929-4 0  9999
2 26931  67.0526  30.8511 0006576 264.1905  95.8447 14.31933151282334
SAUDISAT 1C (SO-50)     
1 27607U 02058C   26111.23996295  .00000715  00000+0  10220-3 0  9993
2 27607  64.5518 305.1618 0075564 272.8287  86.4172 14.82917516256016
CUTE-1 (CO-55)          
1 27844U 03031E   26110.29260098  .00000190  00000+0  10144-3 0  9990
2 27844  98.6762 119.5763 0009488   1.4392 358.6813 14.24298412183435
CUBESAT XI-IV (CO-57)   
1 27848U 03031J   26110.74411828  .00000163  00000+0  90933-4 0  9998
2 27848  98.6794 119.7811 0009755  18.1965 341.9561 14.23588891183200
MOZHAETS 4 (RS22)       
1 27939U 03042A   26111.51170396  .00000658  00000+0  10987-3 0  9998
2 27939  98.3464 294.2733 0012586  88.6241 356.7947 14.73362010207206
CUBESAT XI-V            
1 28895U 05043F   26111.39264274  .00001069  00000+0  17650-3 0  9999
2 28895  98.2916 265.8486 0014571  30.7648 329.4410 14.72477043 93390
CUTE-1.7+APD II (CO-65) 
1 32785U 08021C   26111.49334517  .00004740  00000+0  30465-3 0  9998
2 32785  97.8257  91.7689 0007920 212.6171 147.4569 15.08900370976644
SEEDS II (CO-66)        
1 32791U 08021J   26111.23576156  .00017002  00000+0  57358-3 0  9999
2 32791  97.7537 106.5064 0004669 124.7964 235.3716 15.30773194978575
